H1 CPF  1  DLR 2021 03 19 10  5782 technosat            
H2  1704205 6203    42829 2021 03 19 00 00 00 2021 03 26 00 00 00    60 1 1  0 0 0
H9
10 0 59296  43200.000000  0       4992045.861      -4847792.812       -461788.672
10 0 59296  43260.000000  0       4939309.379      -4921554.529        -12157.748
10 0 59296  43320.000000  0       4865187.018      -4974002.109        437524.534
10 0 59296  43380.000000  0       4770169.932      -5004719.240        885346.776
10 0 59296  43440.000000  0       4654842.068      -5013386.931       1329403.909
10 0 59296  43500.000000  0       4519876.845      -4999785.777       1767805.587
10 0 59296  43560.000000  0       4366033.455      -4963797.775       2198684.483
10 0 59296  43620.000000  0       4194152.792      -4905407.661       2620204.544
10 0 59296  43680.000000  0       4005152.955      -4824703.701       3030569.114
10 0 59296  43740.000000  0       3800024.351      -4721877.979       3428028.876
10 0 59296  43800.000000  0       3579824.465      -4597226.138       3810889.545
10 0 59296  43860.000000  0       3345672.338      -4451146.610       4177519.276
10 0 59296  43920.000000  0       3098742.805      -4284139.324       4526355.792
10 0 59296  43980.000000  0       2840260.481      -4096803.901       4855913.162
10 0 59296  44040.000000  0       2571493.565      -3889837.389       5164788.160
10 0 59296  44100.000000  0       2293747.517      -3664031.570       5451666.312
10 0 59296  44160.000000  0       2008358.543      -3420269.715       5715327.556
10 0 59296  44220.000000  0       1716686.993      -3159522.887       5954651.343
10 0 59296  44280.000000  0       1420110.761      -2882845.878       6168621.271
10 0 59296  44340.000000  0       1120018.681      -2591372.798       6356329.319
10 0 59296  44400.000000  0        817803.890      -2286312.247       6516979.591
10 0 59296  44460.000000  0        514857.255      -1968942.131       6649891.523
10 0 59296  44520.000000  0        212560.941      -1640604.217       6754502.618
10 0 59296  44580.000000  0        -87717.929      -1302698.335       6830370.793
10 0 59296  44640.000000  0       -384633.519       -956676.228       6877176.128
10 0 59296  44700.000000  0       -676867.321       -604035.247       6894722.095
10 0 59296  44760.000000  0       -963134.064       -246311.805       6882936.358
10 0 59296  44820.000000  0      -1242187.423        114925.411       6841871.013
10 0 59296  44880.000000  0      -1512825.476        478082.377       6771702.332
10 0 59296  44940.000000  0      -1773895.903        841546.837       6672730.006
10 0 59296  45000.000000  0      -2024300.963       1203695.493       6545375.900
10 0 59296  45060.000000  0      -2263002.169       1562901.324       6390182.284
10 0 59296  45120.000000  0      -2489024.635       1917540.943       6207809.590
10 0 59296  45180.000000  0      -2701461.127       2266002.013       5999033.720
10 0 59296  45240.000000  0      -2899475.783       2606690.700       5764742.850
10 0 59296  45300.000000  0      -3082307.495       2938039.069       5505933.732
10 0 59296  45360.000000  0      -3249272.950       3258512.409       5223707.527
10 0 59296  45420.000000  0      -3399769.271       3566616.488       4919265.197
10 0 59296  45480.000000  0      -3533276.245       3860904.689       4593902.444
10 0 59296  45540.000000  0      -3649358.171       4139984.983       4249004.208
10 0 59296  45600.000000  0      -3747665.263       4402526.673       3886038.744
10 0 59296  45660.000000  0      -3827934.638       4647266.928       3506551.335
10 0 59296  45720.000000  0      -3889990.883       4873017.047       3112157.607
10 0 59296  45780.000000  0      -3933746.166       5078668.338       2704536.470
10 0 59296  45840.000000  0      -3959199.879       5263197.644       2285422.814
10 0 59296  45900.000000  0      -3966437.845       5425672.491       1856599.949
10 0 59296  45960.000000  0      -3955631.138       5565255.818       1419891.858
10 0 59296  46020.000000  0      -3927034.487       5681210.277        977155.235
10 0 59296  46080.000000  0      -3880984.304       5772902.107        530271.389
10 0 59296  46140.000000  0      -3817896.276       5839804.543         81137.942
10 0 59296  46200.000000  0      -3738262.502       5881500.615       -368339.567
10 0 59296  46260.000000  0      -3642648.277       5897685.338       -816256.013
10 0 59296  46320.000000  0      -3531688.600       5888167.472      -1260715.000
10 0 59296  46380.000000  0      -3406084.264       5852870.627      -1699837.200
10 0 59296  46440.000000  0      -3266597.581       5791833.764      -2131768.401
10 0 59296  46500.000000  0      -3114047.899       5705211.257      -2554687.369
10 0 59296  46560.000000  0      -2949306.941       5593272.365      -2966813.564
10 0 59296  46620.000000  0      -2773293.970       5456400.153      -3366414.614
10 0 59296  46680.000000  0      -2586970.762       5295089.893      -3751813.538
10 0 59296  46740.000000  0      -2391336.390       5109946.938      -4121395.658
10 0 59296  46800.000000  0      -2187421.902       4901684.086      -4473615.119
10 0 59296  46860.000000  0      -1976284.983       4671118.506      -4807001.027
10 0 59296  46920.000000  0      -1759004.587       4419168.306      -5120163.263
10 0 59296  46980.000000  0      -1536675.524       4146848.649      -5411797.984
10 0 59296  47040.000000  0      -1310403.046       3855267.448      -5680692.732
10 0 59296  47100.000000  0      -1081297.451       3545620.650      -5925731.142
10 0 59296  47160.000000  0       -850468.749       3219187.149      -6145897.193
10 0 59296  47220.000000  0       -619021.391       2877323.366      -6340279.015
10 0 59296  47280.000000  0       -388049.147       2521457.560      -6508072.207
10 0 59296  47340.000000  0       -158630.119       2153083.932      -6648582.789
10 0 59296  47400.000000  0         68178.088       1773756.423      -6761229.787
10 0 59296  47460.000000  0        291343.043       1385082.263      -6845547.369
10 0 59296  47520.000000  0        509862.049        988715.340      -6901186.536
10 0 59296  47580.000000  0        722766.505        586349.393      -6927916.409
10 0 59296  47640.000000  0        929126.051        179710.963      -6925625.105
10 0 59296  47700.000000  0       1128052.488       -229447.812      -6894320.113
10 0 59296  47760.000000  0       1318703.463       -639356.464      -6834128.236
10 0 59296  47820.000000  0       1500285.905      -1048233.546      -6745295.161
10 0 59296  47880.000000  0       1672059.228      -1454294.096      -6628184.639
10 0 59296  47940.000000  0       1833338.325      -1855757.159      -6483277.241
10 0 59296  48000.000000  0       1983496.290      -2250853.347      -6311168.664
10 0 59296  48060.000000  0       2121966.821      -2637832.433      -6112567.678
10 0 59296  48120.000000  0       2248246.393      -3014971.020      -5888293.683
10 0 59296  48180.000000  0       2361896.180      -3380580.252      -5639273.735
10 0 59296  48240.000000  0       2462543.624      -3733013.411      -5366539.038
10 0 59296  48300.000000  0       2549883.675      -4070673.322      -5071220.990
10 0 59296  48360.000000  0       2623679.722      -4392019.604      -4754546.911
10 0 59296  48420.000000  0       2683764.215      -4695575.794      -4417835.338
10 0 59296  48480.000000  0       2730038.957      -4979936.307      -4062490.981
10 0 59296  48540.000000  0       2762475.062      -5243773.248      -3689999.237
10 0 59296  48600.000000  0       2781112.580      -5485842.937      -3301920.241
10 0 59296  48660.000000  0       2786059.781      -5704992.078      -2899882.532
10 0 59296  48720.000000  0       2777492.115      -5900163.564      -2485576.405
10 0 59296  48780.000000  0       2755650.852      -6070401.952      -2060746.930
10 0 59296  48840.000000  0       2720841.378      -6214858.557      -1627186.646
10 0 59296  48900.000000  0       2673431.128      -6332796.032      -1186727.899
10 0 59296  48960.000000  0       2613847.187      -6423592.390       -741234.957
10 0 59296  49020.000000  0       2542573.567      -6486744.513       -292595.930
10 0 59296  49080.000000  0       2460148.205      -6521871.054        157285.400
10 0 59296  49140.000000  0       2367159.712      -6528714.856        606497.822
10 0 59296  49200.000000  0       2264243.870      -6507144.799       1053131.121
10 0 59296  49260.000000  0       2152079.879      -6457156.971       1495284.561
10 0 59296  49320.000000  0       2031386.327      -6378875.177       1931075.370
10 0 59296  49380.000000  0       1902916.953      -6272550.724       2358647.033
10 0 59296  49440.000000  0       1767456.340      -6138561.721       2776177.434
10 0 59296  49500.000000  0       1625815.428      -5977411.698       3181886.940
10 0 59296  49560.000000  0       1478826.903      -5789727.594       3574046.199
10 0 59296  49620.000000  0       1327340.496      -5576257.170       3950983.715
10 0 59296  49680.000000  0       1172218.277      -5337865.837       4311093.111
10 0 59296  49740.000000  0       1014329.933      -5075532.992       4652840.121
10 0 59296  49800.000000  0        854547.995      -4790347.774       4974769.306
10 0 59296  49860.000000  0        693743.066      -4483504.224       5275510.340
10 0 59296  49920.000000  0        532779.182      -4156295.950       5553783.863
10 0 59296  49980.000000  0        372509.274      -3810110.333       5808406.899
10 0 59296  50040.000000  0        213770.722      -3446422.308       6038297.789
10 0 59296  50100.000000  0         57381.034      -3066787.824       6242480.635
10 0 59296  50160.000000  0        -95866.317      -2672836.970       6420089.300
10 0 59296  50220.000000  0       -245205.849      -2266266.807       6570370.957
10 0 59296  50280.000000  0       -389903.849      -1848833.911       6692689.155
10 0 59296  50340.000000  0       -529261.953      -1422346.659       6786526.444
99
